#aV2021  6 13  0  0  0.00000000     288 DD+AD WGS84 FIT  NGA
## 2162      0.00000000   300.00000000 59378 0.0000000000000
+   31     1  2  3  4  5  6  7  8  9 10 12 13 14 15 16 17 18
+         19 20 21 22 23 24 25 26 27 28 29 30 31 32  0  0  0
+          0  0  0  0  0  0  0  0  0  0  0  0  0  0  0  0  0
+          0  0  0  0  0  0  0  0  0  0  0  0  0  0  0  0  0
+          0  0  0  0  0  0  0  0  0  0  0  0  0  0  0  0  0
++         2  2  2  2  2  2  2  2  2  2  2  2  2  2  2  2  2
++         2  2  2  2  2  2  2  2  2  2  2  2  2  2  0  0  0
++         0  0  0  0  0  0  0  0  0  0  0  0  0  0  0  0  0
++         0  0  0  0  0  0  0  0  0  0  0  0  0  0  0  0  0
++         0  0  0  0  0  0  0  0  0  0  0  0  0  0  0  0  0
%c cc cc ccc ccc cccc cccc cccc cccc ccccc ccccc ccccc ccccc
%c cc cc ccc ccc cccc cccc cccc cccc ccccc ccccc ccccc ccccc
%f  0.0000000  0.000000000  0.00000000000  0.000000000000000
%f  0.0000000  0.000000000  0.00000000000  0.000000000000000
%i    0    0    0    0      0      0      0      0         0
%i    0    0    0    0      0      0      0      0         0
/*      NGA, ST. LOUIS,MO.                                  
/*   EPHEMERIS COMPUTED FROM 2 DAYS OF DATA                 
/*   EPOCHA v6 SMOOTHER                                     
/*   G2139 IERS2010 SATIGS SATAPC                           
*  2021  6 13 19 25  0.00000000
P  1  22294.102421  14608.094733  -2538.543438    659.479547                    
V  1  -3343.831327     98.438156 -31834.458690     -0.116998                    
P  2  -3593.573627 -17320.587229  20450.258967   -612.101895                    
V  2  22683.670789   9417.752487  12418.920734     -0.029138                    
P  3  12354.035026  15515.021221  17633.630225   -191.080756                    
V  3  -1075.852656  22520.780665 -18855.265863     -0.106197                    
P  4  17405.751746   5744.903376  19252.393108   -199.750761                    
V  4 -20707.026028  12989.895607  14792.754804     -0.011603                    
P  5  -6193.483470 -24841.222132  -6869.062848    -44.847412                    
V  5   2450.548150  -8709.511374  30151.524734     -0.011249                    
P  6   8610.444323 -12032.951207  22116.930134     26.570113                    
V  6  24296.394958  13658.927082  -1975.462926      0.046164                    
P  7  24006.187849   5021.729172 -10441.752682    177.353429                    
V  7  10669.259245   8834.344564  27334.257038      0.097745                    
P  8   8516.780281  12462.600926 -21868.108059    -24.945983                    
V  8 -23543.222519  14627.492407   -534.924579     -0.014047                    
P  9  23290.794671  -4592.693464  11878.966156   -350.926326                    
V  9 -11517.954374  10217.696446  26378.945633     -0.018966                    
P 10 -11840.343540  15578.151053 -17715.953338   -141.678703                    
V 10  -2120.708791 -22771.331403 -18746.139611     -0.075972                    
P 12 -10434.091440 -17632.860991  16724.882285    -54.534550                    
V 12   2708.582419 -21522.284291 -20555.706971     -0.052090                    
P 13   1080.998900 -16281.103742 -21062.111367    144.472168                    
V 13  24572.231136  -9812.866725   9037.547843      0.048786                    
P 14  12796.100589 -15233.651200 -17588.816570     69.694665                    
V 14   1145.923674  22378.489711 -18592.301697     -0.072977                    
P 15 -10618.589012 -12108.841442 -21494.287279   -142.613565                    
V 15  21043.393651 -16215.444045   -929.162557      0.026303                    
P 16   -190.084234  26210.932719  -2521.736127   -340.765584                    
V 16  -2971.310163   2731.029246  32130.334026     -0.060401                    
P 17  22583.311740 -13796.648017   2687.185250    457.940188                    
V 17   3529.011789    536.887389 -31975.575636      0.059644                    
P 18 -22628.819951  -2219.186511 -13798.372618    346.879697                    
V 18 -14094.570602 -10485.951227  24752.284018     -0.017693                    
P 19  18185.484183 -16089.735966  10323.891835     12.950624                    
V 19  13175.740445  -3801.321453 -28474.213147      0.049926                    
P 20  -7961.007885 -24953.100091  -5183.362538    521.202465                    
V 20   2079.627399  -6963.916199  30163.027222     -0.003664                    
P 21  19240.072835  15904.317943  -9054.160059    124.810625                    
V 21 -12239.537767  -2960.070026 -28474.238361      0.025049                    
P 22  10284.625438  22419.255041  10301.860372   -589.320481                    
V 22  -1458.835831  13050.961983 -27245.595518      0.096618                    
P 23 -14907.138300   3549.273137 -21710.919846     97.168659                    
V 23  -1511.856763 -27469.616301  -3507.256390     -0.041721                    
P 24 -20422.237049 -15677.013556  -7567.683119    130.588408                    
V 24   9634.335213   1143.118455 -28936.457240      0.181745                    
P 25 -14901.395671  -4954.374796  21191.240285    155.283296                    
V 25    -78.527980 -27492.881547  -6142.242370      0.068891                    
P 26  -4624.875782  24585.819248   8444.631074     97.966794                    
V 26  -4040.326179 -10681.710858  28955.035901      0.048055                    
P 27  -3154.284269  17516.902985 -19770.128720   -146.599020                    
V 27 -21860.452653  11758.123917  14389.494779     -0.062292                    
P 28  10256.533547 -20716.140849 -12698.532803    555.175195                    
V 28    713.812440  17027.944732 -25905.149386     -0.063620                    
P 29 -23232.877172   2302.326754  12663.014126   -363.582649                    
V 29  13608.556386  -8773.384971  26404.837218     -0.062688                    
P 30  17266.995386  -6233.403912 -19208.962818   -438.565130                    
V 30  20413.229650  13697.202943  13620.899017     -0.046703                    
P 31  -6448.833790  13896.747992  21589.375309   -122.881742                    
V 31 -24040.500576 -13689.849196   2082.985706     -0.021618                    
P 32 -20538.940981  16144.283218   4365.052770     18.587851                    
V 32  -6208.450621    254.120142 -31130.381078     -0.013339                    
EOF
